NORAD_CAT_ID,OBJECT_NAME,OBJECT_TYPE,EPOCH,MEAN_MOTION,ECCENTRICITY,INCLINATION,RA_OF_ASC_NODE,ARG_OF_PERICENTER,MEAN_ANOMALY,BSTAR,MEAN_MOTION_DOT,MEAN_MOTION_DDOT,TLE_LINE0,TLE_LINE1,TLE_LINE2,SEMIMAJOR_AXIS,PERIOD,APOGEE,PERIGEE,DECAYED
54084.0,STARLINK-5183,PAYLOAD,2023-03-05 18:45:06,15.08848936,0.0001144,53.2155,231.9112,89.1092,271.0031,0.00038368,5.825e-05,0.0,0 STARLINK-5183,1 54084U 22136AK  23064.78132597  .00005825  00000-0  38368-3 0  9993,2 54084  53.2155 231.9112 0001144  89.1092 271.0031 15.08848936 21416,6917.853,95.437,540.509,538.927,0.0
54084.0,STARLINK-5183,PAYLOAD,2023-03-06 04:17:25,15.08845078,0.0001633,53.2158,230.1267,73.0133,287.1038,0.00033213,5.003e-05,0.0,0 STARLINK-5183,1 54084U 22136AK  23065.17876943  .00005003  00000-0  33213-3 0  9999,2 54084  53.2158 230.1267 0001633  73.0133 287.1038 15.08845078 21477,6917.865,95.437,540.86,538.6,0.0
54084.0,STARLINK-5183,PAYLOAD,2023-03-06 20:11:16,15.08854381,0.0001296,53.2163,227.1505,80.737,279.3769,0.00036702,5.56e-05,0.0,0 STARLINK-5183,1 54084U 22136AK  23065.84116298  .00005560  00000-0  36702-3 0  9997,2 54084  53.2163 227.1505 0001296  80.7370 279.3769 15.08854381 21096,6917.836,95.437,540.598,538.805,0.0
54084.0,STARLINK-5183,PAYLOAD,2023-03-07 04:08:12,15.08837677,0.0001191,53.2161,225.6647,88.6548,271.4581,1.2789e-05,-8.4e-07,0.0,0 STARLINK-5183,1 54084U 22136AK  23066.17236871 -.00000084  00000-0  12789-4 0  9991,2 54084  53.2161 225.6647 0001191  88.6548 271.4581 15.08837677 21625,6917.887,95.438,540.576,538.929,0.0
54084.0,STARLINK-5183,PAYLOAD,2023-03-07 16:51:17,15.08848868,0.0001289,53.2153,223.287,82.5642,277.5497,0.00031351,4.706e-05,0.0,0 STARLINK-5183,1 54084U 22136AK  23066.70228683  .00004706  00000-0  31351-3 0  9991,2 54084  53.2153 223.2870 0001289  82.5642 277.5497 15.08848868 21700,6917.853,95.437,540.61,538.827,0.0
54084.0,STARLINK-5183,PAYLOAD,2023-03-08 16:42:05,15.08849126,0.0001038,53.2171,218.8254,94.1342,265.9769,0.0008927,0.00013951,0.0,0 STARLINK-5183,1 54084U 22136AK  23067.69589177  .00013951  00000-0  89270-3 0  9993,2 54084  53.2171 218.8254 0001038  94.1342 265.9769 15.08849126 21851,6917.852,95.437,540.436,538.999,0.0
54084.0,STARLINK-5183,PAYLOAD,2023-03-08 19:52:51,15.08856215,0.0001241,53.2174,218.2309,95.43,264.6833,0.001253,0.00019719,0.0,0 STARLINK-5183,1 54084U 22136AK  23067.82837128  .00019719  00000-0  12530-2 0  9992,2 54084  53.2174 218.2309 0001241  95.4300 264.6833 15.08856215 21397,6917.831,95.437,540.554,538.837,0.0
54084.0,STARLINK-5183,PAYLOAD,2023-03-09 16:32:51,15.08871817,0.0001109,53.2168,214.3658,102.7959,257.3157,0.0021922,0.00034804,0.0,0 STARLINK-5183,1 54084U 22136AK  23068.68949072  .00034804  00000-0  21922-2 0  9996,2 54084  53.2168 214.3658 0001109 102.7959 257.3157 15.08871817 22001,6917.783,95.436,540.415,538.881,0.0
54084.0,STARLINK-5183,PAYLOAD,2023-03-10 10:02:06,15.08863836,0.0001294,53.2175,211.0953,93.1114,267.0027,0.0016528,0.00026131,0.0,0 STARLINK-5183,1 54084U 22136AK  23069.41813121  .00026131  00000-0  16528-2 0  9993,2 54084  53.2175 211.0953 0001294  93.1114 267.0027 15.08863836 22110,6917.808,95.436,540.568,538.777,0.0
54084.0,STARLINK-5183,PAYLOAD,2023-03-10 16:23:38,15.08850649,0.0001701,53.2183,209.9069,97.1595,262.9591,0.00069758,0.00010835,0.0,0 STARLINK-5183,1 54084U 22136AK  23069.68309016  .00010835  00000-0  69758-3 0  9993,2 54084  53.2183 209.9069 0001701  97.1595 262.9591 15.08850649 22155,6917.848,95.437,540.89,538.536,0.0
54084.0,STARLINK-5183,PAYLOAD,2023-03-11 01:55:58,15.08832748,0.0002149,53.2155,208.1201,86.2844,273.8393,5.5912e-05,6.02e-06,0.0,0 STARLINK-5183,1 54084U 22136AK  23070.08053551  .00000602  00000-0  55912-4 0  9998,2 54084  53.2155 208.1201 0002149  86.2844 273.8393 15.08832748 22214,6917.903,95.438,541.254,538.281,0.0
54084.0,STARLINK-5183,PAYLOAD,2023-03-11 09:52:54,15.08834484,0.0001474,53.2177,206.6355,98.8757,261.2402,0.00071821,0.00011159,0.0,0 STARLINK-5183,1 54084U 22136AK  23070.41173695  .00011159  00000-0  71821-3 0  9992,2 54084  53.2177 206.6355 0001474  98.8757 261.2402 15.08834484 21785,6917.897,95.438,540.782,538.743,0.0
54084.0,STARLINK-5183,PAYLOAD,2023-03-11 16:14:26,15.08844965,0.0001529,53.2183,205.4472,103.9736,256.1426,0.0016486,0.0002605,0.0,0 STARLINK-5183,1 54084U 22136AK  23070.67669610  .00026050  00000-0  16486-2 0  9998,2 54084  53.2183 205.4472 0001529 103.9736 256.1426 15.08844965 22308,6917.865,95.437,540.788,538.672,0.0
54084.0,STARLINK-5183,PAYLOAD,2023-03-12 08:08:18,15.08839373,0.0001618,53.2175,202.4707,125.8188,234.2955,0.0006786,0.00010528,0.0,0 STARLINK-5183,1 54084U 22136AK  23071.33910042  .00010528  00000-0  67860-3 0  9996,2 54084  53.2175 202.4707 0001618 125.8188 234.2955 15.08839373 22402,6917.882,95.438,540.867,538.628,0.0
54084.0,STARLINK-5183,PAYLOAD,2023-03-12 17:40:37,15.08851055,0.0001691,53.2165,200.6886,111.8213,248.2959,0.0012217,0.00019215,0.0,0 STARLINK-5183,1 54084U 22136AK  23071.73654042  .00019215  00000-0  12217-2 0  9992,2 54084  53.2165 200.6886 0001691 111.8213 248.2959 15.08851055 21986,6917.847,95.437,540.881,538.542,0.0
54084.0,STARLINK-5183,PAYLOAD,2023-03-13 09:34:28,15.08860417,0.0001175,53.2172,197.7155,99.0663,261.0462,0.001457,0.00022989,0.0,0 STARLINK-5183,1 54084U 22136AK  23072.39894012  .00022989  00000-0  14570-2 0  9994,2 54084  53.2172 197.7155 0001175  99.0663 261.0462 15.08860417 22561,6917.818,95.436,540.496,538.87,0.0
54084.0,STARLINK-5183,PAYLOAD,2023-03-14 14:11:23,15.08872513,9.45e-05,53.2162,192.3641,43.707,316.3997,0.001014,0.00015901,0.0,0 STARLINK-5183,1 54084U 22136AK  23073.59124968  .00015901  00000-0  10140-2 0  9998,2 54084  53.2162 192.3641 0000945  43.7070 316.3997 15.08872513 22740,6917.781,95.435,540.3,538.992,0.0
54084.0,STARLINK-5183,PAYLOAD,2023-03-15 12:26:47,15.08857124,0.0001177,53.2174,188.2002,84.7136,275.399,0.00048458,7.436e-05,0.0,0 STARLINK-5183,1 54084U 22136AK  23074.51860483  .00007436  00000-0  48458-3 0  9998,2 54084  53.2174 188.2002 0001177  84.7136 275.3990 15.08857124 22887,6917.828,95.436,540.507,538.879,0.0
54084.0,STARLINK-5183,PAYLOAD,2023-03-16 10:42:12,15.08825665,0.0001264,53.2171,184.0361,116.4852,243.627,0.00067856,0.00010524,0.0,0 STARLINK-5183,1 54084U 22136AK  23075.44597867  .00010524  00000-0  67856-3 0  9999,2 54084  53.2171 184.0361 0001264 116.4852 243.6270 15.08825665 23022,6917.924,95.438,540.664,538.915,0.0
54084.0,STARLINK-5183,PAYLOAD,2023-03-17 07:22:14,15.08812788,0.0001247,53.2198,180.1725,117.4136,242.6983,5.7036e-05,6.19e-06,0.0,0 STARLINK-5183,1 54084U 22136AK  23076.30711605  .00000619  00000-0  57036-4 0  9997,2 54084  53.2198 180.1725 0001247 117.4136 242.6983 15.08812788 23155,6917.964,95.439,540.691,538.966,0.0
54084.0,STARLINK-5183,PAYLOAD,2023-03-17 13:43:47,15.08823296,8.02e-05,53.2182,178.9833,104.7106,255.3975,0.00014513,2.022e-05,0.0,0 STARLINK-5183,1 54084U 22136AK  23076.57207616  .00002022  00000-0  14513-3 0  9990,2 54084  53.2182 178.9833 0000802 104.7106 255.3975 15.08823296 22714,6917.931,95.439,540.351,539.242,0.0
54084.0,STARLINK-5183,PAYLOAD,2023-03-17 23:16:06,15.08832528,0.000113,53.2181,177.1972,110.6422,249.4691,0.00035784,5.411e-05,0.0,0 STARLINK-5183,1 54084U 22136AK  23076.96951616  .00005411  00000-0  35784-3 0  9997,2 54084  53.2181 177.1972 0001130 110.6422 249.4691 15.08832528 23257,6917.903,95.438,540.55,538.987,0.0
54084.0,STARLINK-5183,PAYLOAD,2023-03-18 13:34:33,15.08874168,0.0001024,53.2175,174.5228,106.1333,253.9772,0.0011487,0.00018058,0.0,0 STARLINK-5183,1 54084U 22136AK  23077.56566602  .00018058  00000-0  11487-2 0  9995,2 54084  53.2175 174.5228 0001024 106.1333 253.9772 15.08874168 23344,6917.776,95.435,540.349,538.933,0.0
54084.0,STARLINK-5183,PAYLOAD,2023-03-18 16:45:19,15.08887157,0.0001054,53.2162,173.9271,102.943,257.168,0.0013694,0.00021601,0.0,0 STARLINK-5183,1 54084U 22136AK  23077.69814148  .00021601  00000-0  13694-2 0  9990,2 54084  53.2162 173.9271 0001054 102.9430 257.1680 15.08887157 22880,6917.736,95.435,540.33,538.872,0.0
54084.0,STARLINK-5183,PAYLOAD,2023-03-19 05:28:24,15.08878626,0.0002564,53.2179,171.5494,83.5951,276.5333,0.00079082,0.00012334,0.0,0 STARLINK-5183,1 54084U 22136AK  23078.22805980  .00012334  00000-0  79082-3 0  9991,2 54084  53.2179 171.5494 0002564  83.5951 276.5333 15.08878626 23442,6917.762,95.435,541.401,537.854,0.0
54084.0,STARLINK-5183,PAYLOAD,2023-03-19 13:25:19,15.08859178,0.0001277,53.2173,170.0626,89.6812,270.4326,0.0014886,0.00023495,0.0,0 STARLINK-5183,1 54084U 22136AK  23078.55925811  .00023495  00000-0  14886-2 0  9993,2 54084  53.2173 170.0626 0001277  89.6812 270.4326 15.08859178 23491,6917.822,95.436,540.57,538.803,0.0
54084.0,STARLINK-5183,PAYLOAD,2023-03-19 18:11:29,15.08869945,0.0001309,53.2168,169.1698,89.9327,270.1815,0.0020165,0.00031977,0.0,0 STARLINK-5183,1 54084U 22136AK  23078.75797466  .00031977  00000-0  20165-2 0  9999,2 54084  53.2168 169.1698 0001309  89.9327 270.1815 15.08869945 23047,6917.789,95.436,540.559,538.748,0.0
54084.0,STARLINK-5183,PAYLOAD,2023-03-20 06:54:34,15.08838777,9.1e-05,53.2166,166.7911,111.6856,248.4233,0.00028323,4.223e-05,0.0,0 STARLINK-5183,1 54084U 22136AK  23079.28789863  .00004223  00000-0  28323-3 0  9999,2 54084  53.2166 166.7911 0000910 111.6856 248.4233 15.08838777 23606,6917.884,95.438,540.379,539.12,0.0
54084.0,STARLINK-5183,PAYLOAD,2023-03-20 13:16:07,15.08850293,0.0001529,53.2178,165.6023,97.0507,263.0659,0.0012303,0.00019352,0.0,0 STARLINK-5183,1 54084U 22136AK  23079.55286017  .00019352  00000-0  12303-2 0  9991,2 54084  53.2178 165.6023 0001529  97.0507 263.0659 15.08850293 23161,6917.849,95.437,540.772,538.656,0.0
54084.0,STARLINK-5183,PAYLOAD,2023-03-21 06:45:22,15.08844024,0.0001809,53.2178,162.332,83.6833,276.4365,0.00065741,0.00010191,0.0,0 STARLINK-5183,1 54084U 22136AK  23080.28150490  .00010191  00000-0  65741-3 0  9995,2 54084  53.2178 162.3320 0001809  83.6833 276.4365 15.08844024 23751,6917.868,95.437,540.985,538.482,0.0
